NORAD_CAT_ID,OBJECT_NAME,OBJECT_TYPE,EPOCH,MEAN_MOTION,ECCENTRICITY,INCLINATION,RA_OF_ASC_NODE,ARG_OF_PERICENTER,MEAN_ANOMALY,BSTAR,MEAN_MOTION_DOT,MEAN_MOTION_DDOT,TLE_LINE0,TLE_LINE1,TLE_LINE2,SEMIMAJOR_AXIS,PERIOD,APOGEE,PERIGEE,DECAYED
51799.0,STARLINK-3637,PAYLOAD,2022-09-06 14:00:01,15.08790146,0.0001675999999999,53.2179,335.7555,48.8654,218.3236,0.0012514,0.00019657,0.0,0 STARLINK-3637,1 51799U 22017AH  22249.58334491  .00019657  00000-0  12514-2 0  9992,2 51799  53.2179 335.7555 0001676  48.8654 218.3236 15.08790146  1308,6918.033,95.441,541.057,538.738,0.0
51799.0,STARLINK-3637,PAYLOAD,2022-09-06 22:00:00,15.08826344,0.0001554,53.2178,334.2583,49.6536,229.0803,-0.0014904,-0.00023921,0.0,0 STARLINK-3637,1 51799U 22017AH  22249.91667824 -.00023921  00000-0 -14904-2 0  9994,2 51799  53.2178 334.2583 0001554  49.6536 229.0803 15.08826344  1304,6917.922,95.438,540.862,538.712,0.0
51799.0,STARLINK-3637,PAYLOAD,2022-09-07 06:00:00,15.08820253,0.0001478,53.2179,332.7614,56.2737,234.0231,0.0013808,0.00021744,0.0,0 STARLINK-3637,1 51799U 22017AH  22250.25001157  .00021744  00000-0  13808-2 0  9995,2 51799  53.2179 332.7614 0001478  56.2737 234.0231 15.08820253 30761,6917.941,95.439,540.828,538.783,0.0
51799.0,STARLINK-3637,PAYLOAD,2022-09-07 14:00:01,15.08816768,0.0001659,53.2178,331.267,48.8013,253.077,0.0015470999999999,0.00024404,0.0,0 STARLINK-3637,1 51799U 22017AH  22250.58334491  .00024404  00000-0  15471-2 0  9995,2 51799  53.2178 331.2670 0001659  48.8013 253.0770 15.08816768  1304,6917.951,95.439,540.964,538.669,0.0
51799.0,STARLINK-3637,PAYLOAD,2022-09-07 22:00:00,15.08848974,0.0001535,53.2174,329.7695,50.2791,263.1751,-0.0013802,-0.00022192,0.0,0 STARLINK-3637,1 51799U 22017AH  22250.91667824 -.00022192  00000-0 -13802-2 0  9991,2 51799  53.2174 329.7695 0001535  50.2791 263.1751 15.08848974  1307,6917.853,95.437,540.78,538.656,0.0
51799.0,STARLINK-3637,PAYLOAD,2022-09-08 04:00:00,15.0883125,0.0001458,53.2173,328.6466,55.8331,176.3229,0.0026241999999999,0.00041714,0.0,0 STARLINK-3637,1 51799U 22017AH  22251.16667824  .00041714  00000-0  26242-2 0  9990,2 51799  53.2173 328.6466 0001458  55.8331 176.3229 15.08831250 30907,6917.906999999997,95.438,540.781,538.764,0.0
51799.0,STARLINK-3637,PAYLOAD,2022-09-08 14:00:01,15.08845641,0.0001679,53.2172,326.7783,49.6052,287.0568,0.00077379,0.0001205,0.0,0 STARLINK-3637,1 51799U 22017AH  22251.58334491  .00012050  00000-0  77379-3 0  9996,2 51799  53.2172 326.7783 0001679  49.6052 287.0568 15.08845641  1300,6917.863,95.437,540.89,538.567,0.0
51799.0,STARLINK-3637,PAYLOAD,2022-09-08 20:00:01,15.08878897,0.0001641999999999,53.2167,325.6552,50.3063,205.0614,-0.0038968,-0.00061839,0.0,0 STARLINK-3637,1 51799U 22017AH  22251.83334491 -.00061839  00000-0 -38968-2 0  9995,2 51799  53.2167 325.6552 0001642  50.3063 205.0614 15.08878897 31008,6917.761,95.435,540.762,538.491,0.0
51799.0,STARLINK-3637,PAYLOAD,2022-09-08 22:00:00,15.08857866,0.0001621,53.2168,325.2806,52.9424,295.3366,-0.0019116,-0.00030597,0.0,0 STARLINK-3637,1 51799U 22017AH  22251.91667824 -.00030597  00000-0 -19116-2 0  9994,2 51799  53.2168 325.2806 0001621  52.9424 295.3366 15.08857866  1302,6917.826,95.436,540.812,538.569,0.0
51799.0,STARLINK-3637,PAYLOAD,2022-09-09 14:00:01,15.08810271,0.0001686,53.2166,322.2895,48.3526,323.1342,0.0024546,0.00038962,0.0,0 STARLINK-3637,1 51799U 22017AH  22252.58334491  .00038962  00000-0  24546-2 0  9994,2 51799  53.2166 322.2895 0001686  48.3526 323.1342 15.08810271 31124,6917.971,95.439,541.003,538.67,0.0
51799.0,STARLINK-3637,PAYLOAD,2022-09-09 22:00:00,15.08841961,0.0001581,53.2164,320.7916,50.3135,332.7502,-0.0004348,-7.202e-05,0.0,0 STARLINK-3637,1 51799U 22017AH  22252.91667824 -.00007202  00000-0 -43480-3 0  9994,2 51799  53.2164 320.7916 0001581  50.3135 332.7502 15.08841961  1303,6917.874,95.437,540.8330000000002,538.646,0.0
51799.0,STARLINK-3637,PAYLOAD,2022-09-10 04:00:00,15.08837416,0.0001535,53.2162,319.6688,54.5285,247.2282,0.0017915,0.00028337,0.0,0 STARLINK-3637,1 51799U 22017AH  22253.16667824  .00028337  00000-0  17915-2 0  9995,2 51799  53.2162 319.6688 0001535  54.5285 247.2282 15.08837416 31202,6917.888000000001,95.438,540.815,538.691,0.0
51799.0,STARLINK-3637,PAYLOAD,2022-09-10 14:00:01,15.08802923,0.0001651,53.2162,317.8004,44.3528,1.9129,0.0027135,0.00043118,0.0,0 STARLINK-3637,1 51799U 22017AH  22253.58334491  .00043118  00000-0  27135-2 0  9991,2 51799  53.2162 317.8004 0001651  44.3528   1.9129 15.08802923 31277,6917.994000000002,95.44,541.001,538.717,0.0
51799.0,STARLINK-3637,PAYLOAD,2022-09-10 22:00:00,15.08834517,0.0001543,53.216,316.3024,46.9315,10.9087,2.1421e-05,5.3e-07,0.0,0 STARLINK-3637,1 51799U 22017AH  22253.91667824  .00000053  00000-0  21421-4 0  9992,2 51799  53.2160 316.3024 0001543  46.9315  10.9087 15.08834517  1301,6917.897,95.438,540.83,538.695,0.0
51799.0,STARLINK-3637,PAYLOAD,2022-09-11 04:00:00,15.08833329,0.0001544,53.216,315.1796,50.9433,285.587,0.0021749,0.00034489,0.0,0 STARLINK-3637,1 51799U 22017AH  22254.16667824  .00034489  00000-0  21749-2 0  9991,2 51799  53.2160 315.1796 0001544  50.9433 285.5870 15.08833329 31359,6917.901,95.438,540.8340000000002,538.698,0.0
51799.0,STARLINK-3637,PAYLOAD,2022-09-11 14:00:01,15.08845777,0.0001795,53.216,313.3111,44.3361,36.7077,0.00077934,0.00012139,0.0,0 STARLINK-3637,1 51799U 22017AH  22254.58334491  .00012139  00000-0  77934-3 0  9994,2 51799  53.2160 313.3111 0001795  44.3361  36.7077 15.08845777  1302,6917.863,95.437,540.969,538.486,0.0
51799.0,STARLINK-3637,PAYLOAD,2022-09-11 22:00:00,15.088424800000002,0.0001733,53.2161,311.8129,49.5611,43.094,-0.0008654,-0.00014036,0.0,0 STARLINK-3637,1 51799U 22017AH  22254.91667824 -.00014036  00000-0 -86540-3 0  9993,2 51799  53.2161 311.8129 0001733  49.5611  43.0940 15.08842480 31471,6917.873000000001,95.437,540.937,538.539,0.0
51799.0,STARLINK-3637,PAYLOAD,2022-09-12 14:00:01,15.08807226,0.0002005,53.216,308.8216,48.2694,67.5728,0.0035957999999999,0.00057354,0.0,0 STARLINK-3637,1 51799U 22017AH  22255.58334491  .00057354  00000-0  35958-2 0  9992,2 51799  53.2160 308.8216 0002005  48.2694  67.5728 15.08807226  1306,6917.981,95.44,541.2330000000002,538.4590000000002,0.0
51799.0,STARLINK-3637,PAYLOAD,2022-09-12 22:00:00,15.08841998,0.0001841999999999,53.2162,307.3234,51.8111,75.617,0.00017889,2.56e-05,0.0,0 STARLINK-3637,1 51799U 22017AH  22255.91667824  .00002560  00000-0  17889-3 0  9991,2 51799  53.2162 307.3234 0001842  51.8111  75.6170 15.08841998 31627,6917.874,95.437,541.014,538.465,0.0
51799.0,STARLINK-3637,PAYLOAD,2022-09-13 14:00:01,15.08821031,0.0001958,53.216,304.3322,45.5861,105.0461,0.0027042,0.0004298999999999,0.0,0 STARLINK-3637,1 51799U 22017AH  22256.58334491  .00042990  00000-0  27042-2 0  9998,2 51799  53.2160 304.3322 0001958  45.5861 105.0461 15.08821031  1309,6917.938,95.439,541.158,538.4490000000002,0.0
51799.0,STARLINK-3637,PAYLOAD,2022-09-13 22:00:00,15.08814692,0.0001705,53.2163,302.8335,48.9712,113.249,0.00036641,5.544e-05,0.0,0 STARLINK-3637,1 51799U 22017AH  22256.91667824  .00005544  00000-0  36641-3 0  9994,2 51799  53.2163 302.8335 0001705  48.9712 113.2490 15.08814692 31773,6917.958000000001,95.439,541.002,538.643,0.0
51799.0,STARLINK-3637,PAYLOAD,2022-09-14 14:00:01,15.08831961,0.0001934,53.2166,299.8345,44.5693,140.8037,-0.00066565,-0.00010864,0.0,0 STARLINK-3637,1 51799U 22017AH  22257.58334491 -.00010864  00000-0 -66565-3 0  9990,2 51799  53.2166 299.8345 0001934  44.5693 140.8037 15.08831961  1303,6917.905,95.438,541.1080000000002,538.432,0.0
51799.0,STARLINK-3637,PAYLOAD,2022-09-14 22:00:00,15.08776711,0.0001813,53.2173,298.3294,49.4109,147.5611,0.0052498,0.00084115,0.0,0 STARLINK-3637,1 51799U 22017AH  22257.91667824  .00084115  00000-0  52498-2 0  9993,2 51799  53.2173 298.3294 0001813  49.4109 147.5611 15.08776711  1303,6918.074000000001,95.442,541.193,538.685,0.0
51799.0,STARLINK-3637,PAYLOAD,2022-09-15 06:00:00,15.08869226,0.0001709,53.2161,296.8485,49.7889,158.785,-0.0038921,-0.0006175,0.0,0 STARLINK-3637,1 51799U 22017AH  22258.25001157 -.00061750  00000-0 -38921-2 0  9999,2 51799  53.2161 296.8485 0001709  49.7889 158.7850 15.08869226 31976,6917.791,95.436,540.8380000000002,538.474,0.0
51799.0,STARLINK-3637,PAYLOAD,2022-09-15 14:00:01,15.08811308,0.0001814,53.2157,295.353,43.4192,176.7635,0.0030313,0.00048248,0.0,0 STARLINK-3637,1 51799U 22017AH  22258.58334491  .00048248  00000-0  30313-2 0  9997,2 51799  53.2157 295.3530 0001814  43.4192 176.7635 15.08811308  1304,6917.968000000003,95.439,541.0880000000002,538.578,0.0
51799.0,STARLINK-3637,PAYLOAD,2022-09-15 16:00:00,15.08839768,0.0001785,53.2155,294.9785,43.8761,269.1935,-0.00023076,-3.959e-05,0.0,0 STARLINK-3637,1 51799U 22017AH  22258.66667824 -.00003959  00000-0 -23076-3 0  9996,2 51799  53.2155 294.9785 0001785  43.8761 269.1935 15.08839768 32036,6917.880999999999,95.438,540.981,538.511,0.0
51799.0,STARLINK-3637,PAYLOAD,2022-09-16 09:41:43,15.08853935,0.0001875999999999,53.2173,291.6684,52.7458,307.3705,-7.2365e-05,-1.44e-05,0.0,0 STARLINK-3637,1 51799U 22017AH  22259.40397107 -.00001440  00000-0 -72365-4 0  9992,2 51799  53.2173 291.6684 0001876  52.7458 307.3705 15.08853935 32156,6917.8380000000025,95.437,541.001,538.405,0.0
51799.0,STARLINK-3637,PAYLOAD,2022-09-17 01:35:35,15.08834152,0.0001839,53.2171,288.695,53.4248,306.6913,5.646600000000001e-05,6.11e-06,0.0,0 STARLINK-3637,1 51799U 22017AH  22260.06638426  .00000611  00000-0  56466-4 0  9999,2 51799  53.2171 288.6950 0001839  53.4248 306.6913 15.08834152 32254,6917.898,95.438,541.035,538.491,0.0
51799.0,STARLINK-3637,PAYLOAD,2022-09-17 11:07:54,15.08837481,0.0001836,53.2171,286.9103,52.0415,308.0743,2.3143e-05,8e-07,0.0,0 STARLINK-3637,1 51799U 22017AH  22260.46382383  .00000080  00000-0  23143-4 0  9997,2 51799  53.2171 286.9103 0001836  52.0415 308.0743 15.08837481 32315,6917.888000000001,95.438,541.023,538.4830000000002,0.0
